{
  "type": "FeatureCollection",
  "features": [
    {
      "type": "Feature",
      "properties": {
        "norad_id": 66518,
        "name": "STARLINK-35962",
        "group": "last-30-days",
        "lat": 17.81293113263868,
        "lon": -157.0944695691467,
        "alt_km": 416.0039209661618,
        "timestamp": "2025-12-14T14:39:28.131389+00:00",
        "meta_object_name": "STARLINK-35962",
        "meta_object_id": "2025-265C",
        "meta_epoch": "2025-12-13T11:42:14.743296",
        "meta_mean_motion": 15.49994036,
        "meta_eccentricity": 0.00032827,
        "meta_inclination": 43.0004,
        "meta_ra_of_asc_node": 49.6381,
        "meta_arg_of_pericenter": 253.3389,
        "meta_mean_anomaly": 106.7111,
        "meta_ephemeris_type": 0,
        "meta_classification_type": "U",
        "meta_norad_cat_id": 66518,
        "meta_element_set_no": 999,
        "meta_rev_at_epoch": 387,
        "meta_bstar": -0.0037353043,
        "meta_mean_motion_dot": -0.00209379,
        "meta_mean_motion_ddot": 0,
        "tle_line1": "1 66518U 25265C   25347.48767064 -.00209379  00000+0 -37353-2 0  9993",
        "tle_line2": "2 66518  43.0004  49.6381 0003282 253.3389 106.7111 15.49994036  3873"
      },
      "geometry": {
        "type": "Point",
        "coordinates": [
          -157.0944695691467,
          17.81293113263868
        ]
      }
    },
    {
      "type": "Feature",
      "properties": {
        "norad_id": 66519,
        "name": "STARLINK-35931",
        "group": "last-30-days",
        "lat": 13.791557683148227,
        "lon": -152.209684745425,
        "alt_km": 413.415479213395,
        "timestamp": "2025-12-14T14:39:28.131400+00:00",
        "meta_object_name": "STARLINK-35931",
        "meta_object_id": "2025-265D",
        "meta_epoch": "2025-12-13T20:58:10.144992",
        "meta_mean_motion": 15.50630966,
        "meta_eccentricity": 0.00026313,
        "meta_inclination": 43,
        "meta_ra_of_asc_node": 47.3764,
        "meta_arg_of_pericenter": 293.559,
        "meta_mean_anomaly": 66.4994,
        "meta_ephemeris_type": 0,
        "meta_classification_type": "U",
        "meta_norad_cat_id": 66519,
        "meta_element_set_no": 999,
        "meta_rev_at_epoch": 393,
        "meta_bstar": 0.0023654538,
        "meta_mean_motion_dot": 0.00141227,
        "meta_mean_motion_ddot": 0,
        "tle_line1": "1 66519U 25265D   25347.87372853  .00141227  00000+0  23655-2 0  9990",
        "tle_line2": "2 66519  43.0000  47.3764 0002631 293.5590  66.4994 15.50630966  3936"
      },
      "geometry": {
        "type": "Point",
        "coordinates": [
          -152.209684745425,
          13.791557683148227
        ]
      }
    },
    {
      "type": "Feature",
      "properties": {
        "norad_id": 66520,
        "name": "STARLINK-35952",
        "group": "last-30-days",
        "lat": 42.52696561865461,
        "lon": 143.3940550113702,
        "alt_km": 438.07418987531855,
        "timestamp": "2025-12-14T14:39:28.131410+00:00",
        "meta_object_name": "STARLINK-35952",
        "meta_object_id": "2025-265E",
        "meta_epoch": "2025-12-13T22:00:00.999936",
        "meta_mean_motion": 15.40674169,
        "meta_eccentricity": 0.00011503,
        "meta_inclination": 43.0006,
        "meta_ra_of_asc_node": 47.2124,
        "meta_arg_of_pericenter": 289.3966,
        "meta_mean_anomaly": 273.9073,
        "meta_ephemeris_type": 0,
        "meta_classification_type": "U",
        "meta_norad_cat_id": 66520,
        "meta_element_set_no": 999,
        "meta_rev_at_epoch": 518,
        "meta_bstar": 0.00024557537,
        "meta_mean_motion_dot": 9.959e-05,
        "meta_mean_motion_ddot": 0,
        "tle_line1": "1 66520U 25265E   25347.91667824  .00009959  00000+0  24558-3 0  9991",
        "tle_line2": "2 66520  43.0006  47.2124 0001150 289.3966 273.9073 15.40674169  5182"
      },
      "geometry": {
        "type": "Point",
        "coordinates": [
          143.3940550113702,
          42.52696561865461
        ]
      }
    },
    {
      "type": "Feature",
      "properties": {
        "norad_id": 66521,
        "name": "STARLINK-35915",
        "group": "last-30-days",
        "lat": 11.31630731539487,
        "lon": -149.34696510812154,
        "alt_km": 413.16714243155457,
        "timestamp": "2025-12-14T14:39:28.131420+00:00",
        "meta_object_name": "STARLINK-35915",
        "meta_object_id": "2025-265F",
        "meta_epoch": "2025-12-13T20:57:10.010592",
        "meta_mean_motion": 15.50591008,
        "meta_eccentricity": 0.00012565,
        "meta_inclination": 42.9979,
        "meta_ra_of_asc_node": 47.3717,
        "meta_arg_of_pericenter": 279.8468,
        "meta_mean_anomaly": 80.225,
        "meta_ephemeris_type": 0,
        "meta_classification_type": "U",
        "meta_norad_cat_id": 66521,
        "meta_element_set_no": 999,
        "meta_rev_at_epoch": 393,
        "meta_bstar": 0.0017755189,
        "meta_mean_motion_dot": 0.00105276,
        "meta_mean_motion_ddot": 0,
        "tle_line1": "1 66521U 25265F   25347.87303253  .00105276  00000+0  17755-2 0  9999",
        "tle_line2": "2 66521  42.9979  47.3717 0001256 279.8468  80.2250 15.50591008  3935"
      },
      "geometry": {
        "type": "Point",
        "coordinates": [
          -149.34696510812154,
          11.31630731539487
        ]
      }
    },
    {
      "type": "Feature",
      "properties": {
        "norad_id": 66522,
        "name": "STARLINK-35946",
        "group": "last-30-days",
        "lat": 10.022733155968734,
        "lon": -147.88457954920753,
        "alt_km": 413.81861072230276,
        "timestamp": "2025-12-14T14:39:28.131433+00:00",
        "meta_object_name": "STARLINK-35946",
        "meta_object_id": "2025-265G",
        "meta_epoch": "2025-12-13T20:56:40.771968",
        "meta_mean_motion": 15.50588868,
        "meta_eccentricity": 0.00016235,
        "meta_inclination": 43,
        "meta_ra_of_asc_node": 47.3672,
        "meta_arg_of_pericenter": 317.0617,
        "meta_mean_anomaly": 43.0117,
        "meta_ephemeris_type": 0,
        "meta_classification_type": "U",
        "meta_norad_cat_id": 66522,
        "meta_element_set_no": 999,
        "meta_rev_at_epoch": 393,
        "meta_bstar": 0.0021702645,
        "meta_mean_motion_dot": 0.00129144,
        "meta_mean_motion_ddot": 0,
        "tle_line1": "1 66522U 25265G   25347.87269412  .00129144  00000+0  21703-2 0  9996",
        "tle_line2": "2 66522  43.0000  47.3672 0001623 317.0617  43.0117 15.50588868  3931"
      },
      "geometry": {
        "type": "Point",
        "coordinates": [
          -147.88457954920753,
          10.022733155968734
        ]
      }
    },
    {
      "type": "Feature",
      "properties": {
        "norad_id": 66523,
        "name": "STARLINK-35969",
        "group": "last-30-days",
        "lat": 8.819981172765923,
        "lon": -146.54023657990385,
        "alt_km": 414.9096587901877,
        "timestamp": "2025-12-14T14:39:28.131443+00:00",
        "meta_object_name": "STARLINK-35969",
        "meta_object_id": "2025-265H",
        "meta_epoch": "2025-12-13T20:56:10.563936",
        "meta_mean_motion": 15.50583384,
        "meta_eccentricity": 0.00038739,
        "meta_inclination": 43.0001,
        "meta_ra_of_asc_node": 47.3654,
        "meta_arg_of_pericenter": 292.2096,
        "meta_mean_anomaly": 67.8353,
        "meta_ephemeris_type": 0,
        "meta_classification_type": "U",
        "meta_norad_cat_id": 66523,
        "meta_element_set_no": 999,
        "meta_rev_at_epoch": 393,
        "meta_bstar": 0.0013707257,
        "meta_mean_motion_dot": 0.00080936,
        "meta_mean_motion_ddot": 0,
        "tle_line1": "1 66523U 25265H   25347.87234449  .00080936  00000+0  13707-2 0  9999",
        "tle_line2": "2 66523  43.0001  47.3654 0003873 292.2096  67.8353 15.50583384  3931"
      },
      "geometry": {
        "type": "Point",
        "coordinates": [
          -146.54023657990385,
          8.819981172765923
        ]
      }
    },
    {
      "type": "Feature",
      "properties": {
        "norad_id": 66524,
        "name": "STARLINK-35687",
        "group": "last-30-days",
        "lat": 40.577441444445014,
        "lon": 110.05591632305729,
        "alt_km": 438.33491299758134,
        "timestamp": "2025-12-14T14:39:28.131467+00:00",
        "meta_object_name": "STARLINK-35687",
        "meta_object_id": "2025-265J",
        "meta_epoch": "2025-12-13T22:00:00.999936",
        "meta_mean_motion": 15.40684006,
        "meta_eccentricity": 0.00012289,
        "meta_inclination": 43.0008,
        "meta_ra_of_asc_node": 47.2724,
        "meta_arg_of_pericenter": 279.1697,
        "meta_mean_anomaly": 259.2431,
        "meta_ephemeris_type": 0,
        "meta_classification_type": "U",
        "meta_norad_cat_id": 66524,
        "meta_element_set_no": 999,
        "meta_rev_at_epoch": 518,
        "meta_bstar": 0.00010241983,
        "meta_mean_motion_dot": 3.975e-05,
        "meta_mean_motion_ddot": 0,
        "tle_line1": "1 66524U 25265J   25347.91667824  .00003975  00000+0  10242-3 0  9992",
        "tle_line2": "2 66524  43.0008  47.2724 0001228 279.1697 259.2431 15.40684006  5184"
      },
      "geometry": {
        "type": "Point",
        "coordinates": [
          110.05591632305729,
          40.577441444445014
        ]
      }
    }
  ]
}